ORBCOMM-X               
1 21576U 91050C   24170.46523102  .00000479  00000+0  15749-3 0  9991
2 21576  98.3894 237.6691 0003433 185.9574 174.1576 14.42555910729667
ORBCOMM FM01            
1 23545U 95017A   24170.55893205  .00006269  00000+0  82403-3 0  9994
2 23545  69.9673 254.5577 0005390 188.0726 172.0338 14.80657254558504
ORBCOMM FM02            
1 23546U 95017B   24170.59787871  .00006656  00000+0  88171-3 0  9998
2 23546  69.9695 273.9514 0006847 172.0213 188.1047 14.80289029558154
ORBCOMM FM08            
1 25112U 97084A   24170.52139348  .00001932  00000+0  61610-3 0  9999
2 25112  45.0154 309.7796 0008847 213.9939 146.0345 14.42806082388799
ORBCOMM FM10            
1 25113U 97084B   24170.53103117  .00001896  00000+0  60700-3 0  9994
2 25113  45.0167 311.6230 0006312 191.2935 168.7775 14.42697843563941
ORBCOMM FM11            
1 25114U 97084C   24170.48388492  .00001845  00000+0  59338-3 0  9999
2 25114  45.0151 311.9494 0007111 190.3914 169.6790 14.42573324388900
ORBCOMM FM12            
1 25115U 97084D   24170.51390783  .00001764  00000+0  56964-3 0  9992
2 25115  45.0159 311.5152 0006124 191.8636 168.2070 14.42536232388707
ORBCOMM FM09            
1 25116U 97084E   24170.52622248  .00001874  00000+0  60280-3 0  9996
2 25116  45.0163 312.1552 0006913 178.2789 181.8086 14.42499629388917
