<?xml version="1.0" encoding="UTF-8"?>
<ndm xmlns:xsi="http://www.w3.org/2001/XMLSchema-instance" xsi:noNamespaceSchemaLocation="https://sanaregistry.org/r/ndmxml_unqualified/ndmxml-2.0.0-master-2.0.xsd">
<omm id="CCSDS_OMM_VERS" version="2.0">
<header><CREATION_DATE/><ORIGINATOR/></header><body><segment><metadata><OBJECT_NAME>ORBCOMM-X</OBJECT_NAME><OBJECT_ID>1991-050C</OBJECT_ID><CENTER_NAME>EARTH</CENTER_NAME><REF_FRAME>TEME</REF_FRAME><TIME_SYSTEM>UTC</TIME_SYSTEM><MEAN_ELEMENT_THEORY>SGP4</MEAN_ELEMENT_THEORY></metadata><data><meanElements><EPOCH>2024-06-18T11:09:55.960128</EPOCH><MEAN_MOTION>14.42555910</MEAN_MOTION><ECCENTRICITY>.0003433</ECCENTRICITY><INCLINATION>98.3894</INCLINATION><RA_OF_ASC_NODE>237.6691</RA_OF_ASC_NODE><ARG_OF_PERICENTER>185.9574</ARG_OF_PERICENTER><MEAN_ANOMALY>174.1576</MEAN_ANOMALY></meanElements><tleParameters><EPHEMERIS_TYPE>0</EPHEMERIS_TYPE><CLASSIFICATION_TYPE>U</CLASSIFICATION_TYPE><NORAD_CAT_ID>21576</NORAD_CAT_ID><ELEMENT_SET_NO>999</ELEMENT_SET_NO><REV_AT_EPOCH>72966</REV_AT_EPOCH><BSTAR>.15749E-3</BSTAR><MEAN_MOTION_DOT>.479E-5</MEAN_MOTION_DOT><MEAN_MOTION_DDOT>0</MEAN_MOTION_DDOT></tleParameters></data></segment></body></omm>
<omm id="CCSDS_OMM_VERS" version="2.0">
<header><CREATION_DATE/><ORIGINATOR/></header><body><segment><metadata><OBJECT_NAME>ORBCOMM FM01</OBJECT_NAME><OBJECT_ID>1995-017A</OBJECT_ID><CENTER_NAME>EARTH</CENTER_NAME><REF_FRAME>TEME</REF_FRAME><TIME_SYSTEM>UTC</TIME_SYSTEM><MEAN_ELEMENT_THEORY>SGP4</MEAN_ELEMENT_THEORY></metadata><data><meanElements><EPOCH>2024-06-18T13:24:51.729120</EPOCH><MEAN_MOTION>14.80657254</MEAN_MOTION><ECCENTRICITY>.000539</ECCENTRICITY><INCLINATION>69.9673</INCLINATION><RA_OF_ASC_NODE>254.5577</RA_OF_ASC_NODE><ARG_OF_PERICENTER>188.0726</ARG_OF_PERICENTER><MEAN_ANOMALY>172.0338</MEAN_ANOMALY></meanElements><tleParameters><EPHEMERIS_TYPE>0</EPHEMERIS_TYPE><CLASSIFICATION_TYPE>U</CLASSIFICATION_TYPE><NORAD_CAT_ID>23545</NORAD_CAT_ID><ELEMENT_SET_NO>999</ELEMENT_SET_NO><REV_AT_EPOCH>55850</REV_AT_EPOCH><BSTAR>.82403E-3</BSTAR><MEAN_MOTION_DOT>.6269E-4</MEAN_MOTION_DOT><MEAN_MOTION_DDOT>0</MEAN_MOTION_DDOT></tleParameters></data></segment></body></omm>
<omm id="CCSDS_OMM_VERS" version="2.0">
<header><CREATION_DATE/><ORIGINATOR/></header><body><segment><metadata><OBJECT_NAME>ORBCOMM FM02</OBJECT_NAME><OBJECT_ID>1995-017B</OBJECT_ID><CENTER_NAME>EARTH</CENTER_NAME><REF_FRAME>TEME</REF_FRAME><TIME_SYSTEM>UTC</TIME_SYSTEM><MEAN_ELEMENT_THEORY>SGP4</MEAN_ELEMENT_THEORY></metadata><data><meanElements><EPOCH>2024-06-18T14:20:56.720544</EPOCH><MEAN_MOTION>14.80289029</MEAN_MOTION><ECCENTRICITY>.0006847</ECCENTRICITY><INCLINATION>69.9695</INCLINATION><RA_OF_ASC_NODE>273.9514</RA_OF_ASC_NODE><ARG_OF_PERICENTER>172.0213</ARG_OF_PERICENTER><MEAN_ANOMALY>188.1047</MEAN_ANOMALY></meanElements><tleParameters><EPHEMERIS_TYPE>0</EPHEMERIS_TYPE><CLASSIFICATION_TYPE>U</CLASSIFICATION_TYPE><NORAD_CAT_ID>23546</NORAD_CAT_ID><ELEMENT_SET_NO>999</ELEMENT_SET_NO><REV_AT_EPOCH>55815</REV_AT_EPOCH><BSTAR>.88171E-3</BSTAR><MEAN_MOTION_DOT>.6656E-4</MEAN_MOTION_DOT><MEAN_MOTION_DDOT>0</MEAN_MOTION_DDOT></tleParameters></data></segment></body></omm>
<omm id="CCSDS_OMM_VERS" version="2.0">
<header><CREATION_DATE/><ORIGINATOR/></header><body><segment><metadata><OBJECT_NAME>ORBCOMM FM08</OBJECT_NAME><OBJECT_ID>1997-084A</OBJECT_ID><CENTER_NAME>EARTH</CENTER_NAME><REF_FRAME>TEME</REF_FRAME><TIME_SYSTEM>UTC</TIME_SYSTEM><MEAN_ELEMENT_THEORY>SGP4</MEAN_ELEMENT_THEORY></metadata><data><meanElements><EPOCH>2024-06-18T12:30:48.396672</EPOCH><MEAN_MOTION>14.42806082</MEAN_MOTION><ECCENTRICITY>.0008847</ECCENTRICITY><INCLINATION>45.0154</INCLINATION><RA_OF_ASC_NODE>309.7796</RA_OF_ASC_NODE><ARG_OF_PERICENTER>213.9939</ARG_OF_PERICENTER><MEAN_ANOMALY>146.0345</MEAN_ANOMALY></meanElements><tleParameters><EPHEMERIS_TYPE>0</EPHEMERIS_TYPE><CLASSIFICATION_TYPE>U</CLASSIFICATION_TYPE><NORAD_CAT_ID>25112</NORAD_CAT_ID><ELEMENT_SET_NO>999</ELEMENT_SET_NO><REV_AT_EPOCH>38879</REV_AT_EPOCH><BSTAR>.6161E-3</BSTAR><MEAN_MOTION_DOT>.1932E-4</MEAN_MOTION_DOT><MEAN_MOTION_DDOT>0</MEAN_MOTION_DDOT></tleParameters></data></segment></body></omm>
<omm id="CCSDS_OMM_VERS" version="2.0">
<header><CREATION_DATE/><ORIGINATOR/></header><body><segment><metadata><OBJECT_NAME>ORBCOMM FM10</OBJECT_NAME><OBJECT_ID>1997-084B</OBJECT_ID><CENTER_NAME>EARTH</CENTER_NAME><REF_FRAME>TEME</REF_FRAME><TIME_SYSTEM>UTC</TIME_SYSTEM><MEAN_ELEMENT_THEORY>SGP4</MEAN_ELEMENT_THEORY></metadata><data><meanElements><EPOCH>2024-06-18T12:44:41.093088</EPOCH><MEAN_MOTION>14.42697843</MEAN_MOTION><ECCENTRICITY>.0006312</ECCENTRICITY><INCLINATION>45.0167</INCLINATION><RA_OF_ASC_NODE>311.6230</RA_OF_ASC_NODE><ARG_OF_PERICENTER>191.2935</ARG_OF_PERICENTER><MEAN_ANOMALY>168.7775</MEAN_ANOMALY></meanElements><tleParameters><EPHEMERIS_TYPE>0</EPHEMERIS_TYPE><CLASSIFICATION_TYPE>U</CLASSIFICATION_TYPE><NORAD_CAT_ID>25113</NORAD_CAT_ID><ELEMENT_SET_NO>999</ELEMENT_SET_NO><REV_AT_EPOCH>56394</REV_AT_EPOCH><BSTAR>.607E-3</BSTAR><MEAN_MOTION_DOT>.1896E-4</MEAN_MOTION_DOT><MEAN_MOTION_DDOT>0</MEAN_MOTION_DDOT></tleParameters></data></segment></body></omm>
<omm id="CCSDS_OMM_VERS" version="2.0">
<header><CREATION_DATE/><ORIGINATOR/></header><body><segment><metadata><OBJECT_NAME>ORBCOMM FM11</OBJECT_NAME><OBJECT_ID>1997-084C</OBJECT_ID><CENTER_NAME>EARTH</CENTER_NAME><REF_FRAME>TEME</REF_FRAME><TIME_SYSTEM>UTC</TIME_SYSTEM><MEAN_ELEMENT_THEORY>SGP4</MEAN_ELEMENT_THEORY></metadata><data><meanElements><EPOCH>2024-06-18T11:36:47.657088</EPOCH><MEAN_MOTION>14.42573324</MEAN_MOTION><ECCENTRICITY>.0007111</ECCENTRICITY><INCLINATION>45.0151</INCLINATION><RA_OF_ASC_NODE>311.9494</RA_OF_ASC_NODE><ARG_OF_PERICENTER>190.3914</ARG_OF_PERICENTER><MEAN_ANOMALY>169.6790</MEAN_ANOMALY></meanElements><tleParameters><EPHEMERIS_TYPE>0</EPHEMERIS_TYPE><CLASSIFICATION_TYPE>U</CLASSIFICATION_TYPE><NORAD_CAT_ID>25114</NORAD_CAT_ID><ELEMENT_SET_NO>999</ELEMENT_SET_NO><REV_AT_EPOCH>38890</REV_AT_EPOCH><BSTAR>.59338E-3</BSTAR><MEAN_MOTION_DOT>.1845E-4</MEAN_MOTION_DOT><MEAN_MOTION_DDOT>0</MEAN_MOTION_DDOT></tleParameters></data></segment></body></omm>
<omm id="CCSDS_OMM_VERS" version="2.0">
<header><CREATION_DATE/><ORIGINATOR/></header><body><segment><metadata><OBJECT_NAME>ORBCOMM FM12</OBJECT_NAME><OBJECT_ID>1997-084D</OBJECT_ID><CENTER_NAME>EARTH</CENTER_NAME><REF_FRAME>TEME</REF_FRAME><TIME_SYSTEM>UTC</TIME_SYSTEM><MEAN_ELEMENT_THEORY>SGP4</MEAN_ELEMENT_THEORY></metadata><data><meanElements><EPOCH>2024-06-18T12:20:01.636512</EPOCH><MEAN_MOTION>14.42536232</MEAN_MOTION><ECCENTRICITY>.0006124</ECCENTRICITY><INCLINATION>45.0159</INCLINATION><RA_OF_ASC_NODE>311.5152</RA_OF_ASC_NODE><ARG_OF_PERICENTER>191.8636</ARG_OF_PERICENTER><MEAN_ANOMALY>168.2070</MEAN_ANOMALY></meanElements><tleParameters><EPHEMERIS_TYPE>0</EPHEMERIS_TYPE><CLASSIFICATION_TYPE>U</CLASSIFICATION_TYPE><NORAD_CAT_ID>25115</NORAD_CAT_ID><ELEMENT_SET_NO>999</ELEMENT_SET_NO><REV_AT_EPOCH>38870</REV_AT_EPOCH><BSTAR>.56964E-3</BSTAR><MEAN_MOTION_DOT>.1764E-4</MEAN_MOTION_DOT><MEAN_MOTION_DDOT>0</MEAN_MOTION_DDOT></tleParameters></data></segment></body></omm>
<omm id="CCSDS_OMM_VERS" version="2.0">
<header><CREATION_DATE/><ORIGINATOR/></header><body><segment><metadata><OBJECT_NAME>ORBCOMM FM09</OBJECT_NAME><OBJECT_ID>1997-084E</OBJECT_ID><CENTER_NAME>EARTH</CENTER_NAME><REF_FRAME>TEME</REF_FRAME><TIME_SYSTEM>UTC</TIME_SYSTEM><MEAN_ELEMENT_THEORY>SGP4</MEAN_ELEMENT_THEORY></metadata><data><meanElements><EPOCH>2024-06-18T12:37:45.622272</EPOCH><MEAN_MOTION>14.42499629</MEAN_MOTION><ECCENTRICITY>.0006913</ECCENTRICITY><INCLINATION>45.0163</INCLINATION><RA_OF_ASC_NODE>312.1552</RA_OF_ASC_NODE><ARG_OF_PERICENTER>178.2789</ARG_OF_PERICENTER><MEAN_ANOMALY>181.8086</MEAN_ANOMALY></meanElements><tleParameters><EPHEMERIS_TYPE>0</EPHEMERIS_TYPE><CLASSIFICATION_TYPE>U</CLASSIFICATION_TYPE><NORAD_CAT_ID>25116</NORAD_CAT_ID><ELEMENT_SET_NO>999</ELEMENT_SET_NO><REV_AT_EPOCH>38891</REV_AT_EPOCH><BSTAR>.6028E-3</BSTAR><MEAN_MOTION_DOT>.1874E-4</MEAN_MOTION_DOT><MEAN_MOTION_DDOT>0</MEAN_MOTION_DDOT></tleParameters></data></segment></body></omm>

</ndm>
